STARLINK-31638          
1 59489U 24071F   26068.08002303 -.00005336  00000+0 -18453-3 0  9999
2 59489  43.0038 343.0766 0001595 263.3167  96.7503 15.27574897108118
HERMES-2                
1 63243U 25052AK  26068.92847372  .00009456  00000+0  34839-3 0  9999
2 63243  97.4004 324.4926 0006340  99.4160 260.7796 15.28021069 54859
